STARLINK-2184
1 27766C 21017AW  21325.11393184  .00005871  00000-0  39326-3 0  3254
2 27766  53.0556  72.7186 0001181  77.0806 342.3914 15.06401018    19
